COSMOS 2251 DEB         
1 37546U 93036BPB 17345.28781623  .00000749  00000-0  22702-3 0  9999
2 37546  74.0338 201.0536 0015303 246.7936 113.1610 14.43954468234750
